{"type": "FeatureCollection", "features": [ {"type": "Feature", "properties": {"norad_id": 41785, "name": "ALSAT 1B", "group": "resource", "lat": 55.59419898809774, "lon": 0.7431794532607182, "alt_km": 641.634417214641, "timestamp": "2025-12-27T02:10:15.845503+00:00", "meta": {"OBJECT_NAME": "ALSAT 1B", "OBJECT_ID": "2016-059C", "EPOCH": "2025-12-26T21:01:20.331264", "MEAN_MOTION": 14.72090442, "ECCENTRICITY": 0.0010711, "INCLINATION": 97.7812, "RA_OF_ASC_NODE": 12.055, "ARG_OF_PERICENTER": 63.9641, "MEAN_ANOMALY": 296.2669, "EPHEMERIS_TYPE": 0, "CLASSIFICATION_TYPE": "U", "NORAD_CAT_ID": 41785, "ELEMENT_SET_NO": 999, "REV_AT_EPOCH": 49522, "BSTAR": 0.00011926, "MEAN_MOTION_DOT": 7.03e-06, "MEAN_MOTION_DDOT": 0}, "tle": {"line1": "1 41785U 16059C   25360.87592976  .00000703  00000+0  11926-3 0  9996", "line2": "2 41785  97.7812  12.0550 0010711  63.9641 296.2669 14.72090442495228"}}, "geometry": {"type": "Point", "coordinates": [0.7431794532607182, 55.59419898809774]}}, {"type": "Feature", "properties": {"norad_id": 41787, "name": "PATHFINDER 1", "group": "resource", "lat": -68.51919767745063, "lon": 162.7749171128066, "alt_km": 694.334899365489, "timestamp": "2025-12-27T02:10:15.845513+00:00", "meta": {"OBJECT_NAME": "PATHFINDER 1", "OBJECT_ID": "2016-059E", "EPOCH": "2025-12-26T13:34:46.547328", "MEAN_MOTION": 14.67345556, "ECCENTRICITY": 0.0029523, "INCLINATION": 97.8139, "RA_OF_ASC_NODE": 2.6979, "ARG_OF_PERICENTER": 38.9477, "MEAN_ANOMALY": 321.3847, "EPHEMERIS_TYPE": 0, "CLASSIFICATION_TYPE": "U", "NORAD_CAT_ID": 41787, "ELEMENT_SET_NO": 999, "REV_AT_EPOCH": 49439, "BSTAR": 0.00017286, "MEAN_MOTION_DOT": 9.36e-06, "MEAN_MOTION_DDOT": 0}, "tle": {"line1": "1 41787U 16059E   25360.56581652  .00000936  00000+0  17286-3 0  9996", "line2": "2 41787  97.8139   2.6979 0029523  38.9477 321.3847 14.67345556494391"}}, "geometry": {"type": "Point", "coordinates": [162.7749171128066, -68.51919767745063]}}, {"type": "Feature", "properties": {"norad_id": 41790, "name": "SCATSAT 1", "group": "resource", "lat": 55.79822014418264, "lon": -109.89714130703847, "alt_km": 597.0392416351078, "timestamp": "2025-12-27T02:10:15.845524+00:00", "meta": {"OBJECT_NAME": "SCATSAT 1", "OBJECT_ID": "2016-059H", "EPOCH": "2025-12-26T14:15:15.732576", "MEAN_MOTION": 14.78980653, "ECCENTRICITY": 0.005643, "INCLINATION": 98.1445, "RA_OF_ASC_NODE": 57.4361, "ARG_OF_PERICENTER": 84.3615, "MEAN_ANOMALY": 276.4027, "EPHEMERIS_TYPE": 0, "CLASSIFICATION_TYPE": "U", "NORAD_CAT_ID": 41790, "ELEMENT_SET_NO": 999, "REV_AT_EPOCH": 7607, "BSTAR": 0.00021562, "MEAN_MOTION_DOT": 1.578e-05, "MEAN_MOTION_DDOT": 0}, "tle": {"line1": "1 41790U 16059H   25360.59393209  .00001578  00000+0  21562-3 0  9997", "line2": "2 41790  98.1445  57.4361 0056430  84.3615 276.4027 14.78980653 76074"}}, "geometry": {"type": "Point", "coordinates": [-109.89714130703847, 55.79822014418264]}}, {"type": "Feature", "properties": {"norad_id": 41875, "name": "GOKTURK 1A", "group": "resource", "lat": 81.27375444275104, "lon": 142.13330776835957, "alt_km": 675.8156788037595, "timestamp": "2025-12-27T02:10:15.845534+00:00", "meta": {"OBJECT_NAME": "GOKTURK 1A", "OBJECT_ID": "2016-073A", "EPOCH": "2025-12-26T20:49:19.177248", "MEAN_MOTION": 14.62795916, "ECCENTRICITY": 0.0001296, "INCLINATION": 98.1423, "RA_OF_ASC_NODE": 253.0447, "ARG_OF_PERICENTER": 82.6667, "MEAN_ANOMALY": 277.4682, "EPHEMERIS_TYPE": 0, "CLASSIFICATION_TYPE": "U", "NORAD_CAT_ID": 41875, "ELEMENT_SET_NO": 999, "REV_AT_EPOCH": 48363, "BSTAR": 0.00012135, "MEAN_MOTION_DOT": 5.72e-06, "MEAN_MOTION_DDOT": 0}, "tle": {"line1": "1 41875U 16073A   25360.86758307  .00000572  00000+0  12135-3 0  9990", "line2": "2 41875  98.1423 253.0447 0001296  82.6667 277.4682 14.62795916483632"}}, "geometry": {"type": "Point", "coordinates": [142.13330776835957, 81.27375444275104]}}, {"type": "Feature", "properties": {"norad_id": 41877, "name": "RESOURCESAT-2A", "group": "resource", "lat": 1.9358799955391517, "lon": -108.83944548340948, "alt_km": 821.4267597647513, "timestamp": "2025-12-27T02:10:15.845544+00:00", "meta": {"OBJECT_NAME": "RESOURCESAT-2A", "OBJECT_ID": "2016-074A", "EPOCH": "2025-12-26T20:16:09.004224", "MEAN_MOTION": 14.21605023, "ECCENTRICITY": 0.0001683, "INCLINATION": 98.7733, "RA_OF_ASC_NODE": 70.6171, "ARG_OF_PERICENTER": 195.2017, "MEAN_ANOMALY": 164.9109, "EPHEMERIS_TYPE": 0, "CLASSIFICATION_TYPE": "U", "NORAD_CAT_ID": 41877, "ELEMENT_SET_NO": 999, "REV_AT_EPOCH": 46981, "BSTAR": 2.349e-05, "MEAN_MOTION_DOT": 7e-08, "MEAN_MOTION_DDOT": 0}, "tle": {"line1": "1 41877U 16074A   25360.84454866  .00000007  00000+0  23490-4 0  9994", "line2": "2 41877  98.7733  70.6171 0001683 195.2017 164.9109 14.21605023469813"}}, "geometry": {"type": "Point", "coordinates": [-108.83944548340948, 1.9358799955391517]}}, {"type": "Feature", "properties": {"norad_id": 41948, "name": "CARTOSAT-2D", "group": "resource", "lat": -1.251050256547331, "lon": -121.79592904160224, "alt_km": 510.1425942969845, "timestamp": "2025-12-27T02:10:15.845555+00:00", "meta": {"OBJECT_NAME": "CARTOSAT-2D", "OBJECT_ID": "2017-008A", "EPOCH": "2025-12-26T20:38:03.721920", "MEAN_MOTION": 15.19201124, "ECCENTRICITY": 0.0005405, "INCLINATION": 97.4367, "RA_OF_ASC_NODE": 58.1404, "ARG_OF_PERICENTER": 113.2926, "MEAN_ANOMALY": 246.8877, "EPHEMERIS_TYPE": 0, "CLASSIFICATION_TYPE": "U", "NORAD_CAT_ID": 41948, "ELEMENT_SET_NO": 999, "REV_AT_EPOCH": 49141, "BSTAR": 0.00013988, "MEAN_MOTION_DOT": 2.877e-05, "MEAN_MOTION_DDOT": 0}, "tle": {"line1": "1 41948U 17008A   25360.85976530  .00002877  00000+0  13988-3 0  9996", "line2": "2 41948  97.4367  58.1404 0005405 113.2926 246.8877 15.19201124491411"}}, "geometry": {"type": "Point", "coordinates": [-121.79592904160224, -1.251050256547331]}}, {"type": "Feature", "properties": {"norad_id": 42063, "name": "SENTINEL-2B", "group": "resource", "lat": -78.03230469409455, "lon": -152.01250420400817, "alt_km": 797.159719305796, "timestamp": "2025-12-27T02:10:15.845566+00:00", "meta": {"OBJECT_NAME": "SENTINEL-2B", "OBJECT_ID": "2017-013A", "EPOCH": "2025-12-26T19:55:01.682112", "MEAN_MOTION": 14.30816431, "ECCENTRICITY": 0.0001175, "INCLINATION": 98.5694, "RA_OF_ASC_NODE": 73.0769, "ARG_OF_PERICENTER": 88.859, "MEAN_ANOMALY": 271.2728, "EPHEMERIS_TYPE": 0, "CLASSIFICATION_TYPE": "U", "NORAD_CAT_ID": 42063, "ELEMENT_SET_NO": 999, "REV_AT_EPOCH": 45999, "BSTAR": 9.1669e-05, "MEAN_MOTION_DOT": 1.97e-06, "MEAN_MOTION_DDOT": 0}, "tle": {"line1": "1 42063U 17013A   25360.82988058  .00000197  00000+0  91669-4 0  9992", "line2": "2 42063  98.5694  73.0769 0001175  88.8590 271.2728 14.30816431459998"}}, "geometry": {"type": "Point", "coordinates": [-152.01250420400817, -78.03230469409455]}}, {"type": "Feature", "properties": {"norad_id": 42767, "name": "CARTOSAT-2E", "group": "resource", "lat": 82.53234055752884, "lon": -34.344799535112166, "alt_km": 500.28501137787134, "timestamp": "2025-12-27T02:10:15.845576+00:00", "meta": {"OBJECT_NAME": "CARTOSAT-2E", "OBJECT_ID": "2017-036C", "EPOCH": "2025-12-26T19:27:05.796000", "MEAN_MOTION": 15.19210968, "ECCENTRICITY": 0.0002631, "INCLINATION": 97.4535, "RA_OF_ASC_NODE": 58.2116, "ARG_OF_PERICENTER": 166.5771, "MEAN_ANOMALY": 193.5534, "EPHEMERIS_TYPE": 0, "CLASSIFICATION_TYPE": "U", "NORAD_CAT_ID": 42767, "ELEMENT_SET_NO": 999, "REV_AT_EPOCH": 47197, "BSTAR": 0.00021442, "MEAN_MOTION_DOT": 4.446e-05, "MEAN_MOTION_DDOT": 0}, "tle": {"line1": "1 42767U 17036C   25360.81048375  .00004446  00000+0  21442-3 0  9998", "line2": "2 42767  97.4535  58.2116 0002631 166.5771 193.5534 15.19210968471979"}}, "geometry": {"type": "Point", "coordinates": [-34.344799535112166, 82.53234055752884]}}, {"type": "Feature", "properties": {"norad_id": 42920, "name": "FORMOSAT-5", "group": "resource", "lat": -35.324608984023854, "lon": -110.77729534687504, "alt_km": 723.7961941576041, "timestamp": "2025-12-27T02:10:15.845586+00:00", "meta": {"OBJECT_NAME": "FORMOSAT-5", "OBJECT_ID": "2017-049A", "EPOCH": "2025-12-26T18:33:29.513664", "MEAN_MOTION": 14.50768665, "ECCENTRICITY": 0.0009856, "INCLINATION": 98.2437, "RA_OF_ASC_NODE": 74.8091, "ARG_OF_PERICENTER": 253.4548, "MEAN_ANOMALY": 106.5565, "EPHEMERIS_TYPE": 0, "CLASSIFICATION_TYPE": "U", "NORAD_CAT_ID": 42920, "ELEMENT_SET_NO": 999, "REV_AT_EPOCH": 44167, "BSTAR": 7.7222e-05, "MEAN_MOTION_DOT": 2.6e-06, "MEAN_MOTION_DDOT": 0}, "tle": {"line1": "1 42920U 17049A   25360.77325826  .00000260  00000+0  77222-4 0  9995", "line2": "2 42920  98.2437  74.8091 0009856 253.4548 106.5565 14.50768665441678"}}, "geometry": {"type": "Point", "coordinates": [-110.77729534687504, -35.324608984023854]}}, {"type": "Feature", "properties": {"norad_id": 42969, "name": "SENTINEL-5P", "group": "resource", "lat": 74.00523526364303, "lon": -93.07901809094193, "alt_km": 819.131894707406, "timestamp": "2025-12-27T02:10:15.845597+00:00", "meta": {"OBJECT_NAME": "SENTINEL-5P", "OBJECT_ID": "2017-064A", "EPOCH": "2025-12-26T19:02:42.148032", "MEAN_MOTION": 14.19520998, "ECCENTRICITY": 0.0001058, "INCLINATION": 98.7802, "RA_OF_ASC_NODE": 299.2542, "ARG_OF_PERICENTER": 91.0768, "MEAN_ANOMALY": 269.0529, "EPHEMERIS_TYPE": 0, "CLASSIFICATION_TYPE": "U", "NORAD_CAT_ID": 42969, "ELEMENT_SET_NO": 999, "REV_AT_EPOCH": 42510, "BSTAR": 7.0164e-05, "MEAN_MOTION_DOT": 1.04e-06, "MEAN_MOTION_DDOT": 0}, "tle": {"line1": "1 42969U 17064A   25360.79354338  .00000104  00000+0  70164-4 0  9992", "line2": "2 42969  98.7802 299.2542 0001058  91.0768 269.0529 14.19520998425107"}}, "geometry": {"type": "Point", "coordinates": [-93.07901809094193, 74.00523526364303]}}]}